[
    {
        "Altitude(m)": 702779.0597387536,
        "Argument of Periapsis(deg)": 0.010251109067964361,
        "Eccentricity": 0.0,
        "Inclination(deg)": 45.0,
        "Latitude(deg)": 7.309605210544551,
        "Longitude(deg)": -23.363367234930116,
        "Mean Anomaly(deg)": 10.379894982732738,
        "RAAN(deg)": 69.99032325268762,
        "Satellite Name": "Constellation 1 308",
        "Satellite Number": 308,
        "Semi-Major Axis(m)": 7083131.272910544,
        "Time(s)": 171
    },
    {
        "Altitude(m)": 702776.9829931374,
        "Argument of Periapsis(deg)": 0.010311057074209765,
        "Eccentricity": 0.0,
        "Inclination(deg)": 45.0,
        "Latitude(deg)": 7.352468646706522,
        "Longitude(deg)": -23.32390408176522,
        "Mean Anomaly(deg)": 10.440596122982637,
        "RAAN(deg)": 69.99026666352204,
        "Satellite Name": "Constellation 1 308",
        "Satellite Number": 308,
        "Semi-Major Axis(m)": 7083131.272910544,
        "Time(s)": 172
    },
    {
        "Altitude(m)": 702774.9266411851,
        "Argument of Periapsis(deg)": 0.010371005080455171,
        "Eccentricity": 0.0,
        "Inclination(deg)": 45.0,
        "Latitude(deg)": 7.395327817600736,
        "Longitude(deg)": -23.28443252714092,
        "Mean Anomaly(deg)": 10.501297263232537,
        "RAAN(deg)": 69.99021007435647,
        "Satellite Name": "Constellation 1 308",
        "Satellite Number": 308,
        "Semi-Major Axis(m)": 7083131.272910544,
        "Time(s)": 173
    },
    {
        "Altitude(m)": 702772.8906735138,
        "Argument of Periapsis(deg)": 0.010430953086700577,
        "Eccentricity": 0.0,
        "Inclination(deg)": 45.0,
        "Latitude(deg)": 7.43818269689374,
        "Longitude(deg)": -23.244952521138764,
        "Mean Anomaly(deg)": 10.561998403482436,
        "RAAN(deg)": 69.9901534851909,
        "Satellite Name": "Constellation 1 308",
        "Satellite Number": 308,
        "Semi-Major Axis(m)": 7083131.272910544,
        "Time(s)": 174
    },
    {
        "Altitude(m)": 702770.8750806428,
        "Argument of Periapsis(deg)": 0.010490901092945983,
        "Eccentricity": 0.0,
        "Inclination(deg)": 45.0,
        "Latitude(deg)": 7.481033258235865,
        "Longitude(deg)": -23.205464013822105,
        "Mean Anomaly(deg)": 10.622699543732335,
        "RAAN(deg)": 69.99009689602534,
        "Satellite Name": "Constellation 1 308",
        "Satellite Number": 308,
        "Semi-Major Axis(m)": 7083131.272910544,
        "Time(s)": 175
    },
    {
        "Altitude(m)": 702768.8798530143,
        "Argument of Periapsis(deg)": 0.010550849099191389,
        "Eccentricity": 0.0,
        "Inclination(deg)": 45.0,
        "Latitude(deg)": 7.523879475261104,
        "Longitude(deg)": -23.165966955236033,
        "Mean Anomaly(deg)": 10.683400683982235,
        "RAAN(deg)": 69.99004030685977,
        "Satellite Name": "Constellation 1 308",
        "Satellite Number": 308,
        "Semi-Major Axis(m)": 7083131.272910544,
        "Time(s)": 176
    },
    {
        "Altitude(m)": 702766.9049809746,
        "Argument of Periapsis(deg)": 0.010610797105436795,
        "Eccentricity": 0.0,
        "Inclination(deg)": 45.0,
        "Latitude(deg)": 7.566721321587036,
        "Longitude(deg)": -23.126461295407235,
        "Mean Anomaly(deg)": 10.744101824232134,
        "RAAN(deg)": 69.98998371769419,
        "Satellite Name": "Constellation 1 308",
        "Satellite Number": 308,
        "Semi-Major Axis(m)": 7083131.272910544,
        "Time(s)": 177
    },
    {
        "Altitude(m)": 702764.9504547801,
        "Argument of Periapsis(deg)": 0.0106707451116822,
        "Eccentricity": 0.0,
        "Inclination(deg)": 45.0,
        "Latitude(deg)": 7.609558770814456,
        "Longitude(deg)": -23.086947152440814,
        "Mean Anomaly(deg)": 10.804802964482032,
        "RAAN(deg)": 69.98992712852862,
        "Satellite Name": "Constellation 1 308",
        "Satellite Number": 308,
        "Semi-Major Axis(m)": 7083131.272910544,
        "Time(s)": 178
    },
    {
        "Altitude(m)": 702763.0162646051,
        "Argument of Periapsis(deg)": 0.010730693117927606,
        "Eccentricity": 0.0,
        "Inclination(deg)": 45.0,
        "Latitude(deg)": 7.652391796528359,
        "Longitude(deg)": -23.047424140132307,
        "Mean Anomaly(deg)": 10.865504104731933,
        "RAAN(deg)": 69.98987053936307,
        "Satellite Name": "Constellation 1 308",
        "Satellite Number": 308,
        "Semi-Major Axis(m)": 7083131.272910544,
        "Time(s)": 179
    },
    {
        "Altitude(m)": 702761.1024005291,
        "Argument of Periapsis(deg)": 0.01079064112417301,
        "Eccentricity": 0.0,
        "Inclination(deg)": 45.0,
        "Latitude(deg)": 7.695220372296199,
        "Longitude(deg)": -23.007892376549623,
        "Mean Anomaly(deg)": 10.926205244981832,
        "RAAN(deg)": 69.98981395019749,
        "Satellite Name": "Constellation 1 308",
        "Satellite Number": 308,
        "Semi-Major Axis(m)": 7083131.272910544,
        "Time(s)": 180
    },
    {
        "Altitude(m)": 702759.2088525499,
        "Argument of Periapsis(deg)": 0.010850589130418416,
        "Eccentricity": 0.0,
        "Inclination(deg)": 45.0,
        "Latitude(deg)": 7.738044471668921,
        "Longitude(deg)": -22.96835181164479,
        "Mean Anomaly(deg)": 10.98690638523173,
        "RAAN(deg)": 69.98975736103192,
        "Satellite Name": "Constellation 1 308",
        "Satellite Number": 308,
        "Semi-Major Axis(m)": 7083131.272910544,
        "Time(s)": 181
    },
    {
        "Altitude(m)": 702757.3356105682,
        "Argument of Periapsis(deg)": 0.01091053713666382,
        "Eccentricity": 0.0,
        "Inclination(deg)": 45.0,
        "Latitude(deg)": 7.780864068180536,
        "Longitude(deg)": -22.92880239535105,
        "Mean Anomaly(deg)": 11.047607525481629,
        "RAAN(deg)": 69.98970077186634,
        "Satellite Name": "Constellation 1 308",
        "Satellite Number": 308,
        "Semi-Major Axis(m)": 7083131.272910544,
        "Time(s)": 182
    },
    {
        "Altitude(m)": 702755.4826644041,
        "Argument of Periapsis(deg)": 0.010970485142909228,
        "Eccentricity": 0.0,
        "Inclination(deg)": 45.0,
        "Latitude(deg)": 7.823679135348076,
        "Longitude(deg)": -22.88924407758254,
        "Mean Anomaly(deg)": 11.108308665731528,
        "RAAN(deg)": 69.98964418270079,
        "Satellite Name": "Constellation 1 308",
        "Satellite Number": 308,
        "Semi-Major Axis(m)": 7083131.272910544,
        "Time(s)": 183
    },
    {
        "Altitude(m)": 702753.6500037817,
        "Argument of Periapsis(deg)": 0.011030433149154634,
        "Eccentricity": 0.0,
        "Inclination(deg)": 45.0,
        "Latitude(deg)": 7.866489646671465,
        "Longitude(deg)": -22.849676808234545,
        "Mean Anomaly(deg)": 11.169009805981428,
        "RAAN(deg)": 69.9895875935352,
        "Satellite Name": "Constellation 1 308",
        "Satellite Number": 308,
        "Semi-Major Axis(m)": 7083131.272910544,
        "Time(s)": 184
    },
    {
        "Altitude(m)": 702751.83761835,
        "Argument of Periapsis(deg)": 0.01109038115540004,
        "Eccentricity": 0.0,
        "Inclination(deg)": 45.0,
        "Latitude(deg)": 7.909295575633153,
        "Longitude(deg)": -22.81010070528004,
        "Mean Anomaly(deg)": 11.229710946231327,
        "RAAN(deg)": 69.98953100436964,
        "Satellite Name": "Constellation 1 308",
        "Satellite Number": 308,
        "Semi-Major Axis(m)": 7083131.272910544,
        "Time(s)": 185
    },
    {
        "Altitude(m)": 702750.0454976565,
        "Argument of Periapsis(deg)": 0.011150329161645444,
        "Eccentricity": 0.0,
        "Inclination(deg)": 45.0,
        "Latitude(deg)": 7.952096895699126,
        "Longitude(deg)": -22.770515382381717,
        "Mean Anomaly(deg)": 11.290412086481226,
        "RAAN(deg)": 69.98947441520406,
        "Satellite Name": "Constellation 1 308",
        "Satellite Number": 308,
        "Semi-Major Axis(m)": 7083131.272910544,
        "Time(s)": 186
    },
    {
        "Altitude(m)": 702748.273631168,
        "Argument of Periapsis(deg)": 0.01121027716789085,
        "Eccentricity": 0.0,
        "Inclination(deg)": 45.0,
        "Latitude(deg)": 7.994893580317153,
        "Longitude(deg)": -22.730920957474037,
        "Mean Anomaly(deg)": 11.351113226731126,
        "RAAN(deg)": 69.9894178260385,
        "Satellite Name": "Constellation 1 308",
        "Satellite Number": 308,
        "Semi-Major Axis(m)": 7083131.272910544,
        "Time(s)": 187
    },
    {
        "Altitude(m)": 702746.5220082619,
        "Argument of Periapsis(deg)": 0.011270225174136258,
        "Eccentricity": 0.0,
        "Inclination(deg)": 45.0,
        "Latitude(deg)": 8.037685602917804,
        "Longitude(deg)": -22.69131738037492,
        "Mean Anomaly(deg)": 11.411814366981027,
        "RAAN(deg)": 69.98936123687294,
        "Satellite Name": "Constellation 1 308",
        "Satellite Number": 308,
        "Semi-Major Axis(m)": 7083131.272910544,
        "Time(s)": 188
    },
    {
        "Altitude(m)": 702744.7906182249,
        "Argument of Periapsis(deg)": 0.011330173180381662,
        "Eccentricity": 0.0,
        "Inclination(deg)": 45.0,
        "Latitude(deg)": 8.08047293691404,
        "Longitude(deg)": -22.651704600882944,
        "Mean Anomaly(deg)": 11.472515507230924,
        "RAAN(deg)": 69.98930464770736,
        "Satellite Name": "Constellation 1 308",
        "Satellite Number": 308,
        "Semi-Major Axis(m)": 7083131.272910544,
        "Time(s)": 189
    }
]